IRIDIUM 119             
1 42959U 17061E   25172.00484711  .00000037  00000+0  63080-5 0  9997
2 42959  86.3993 176.1927 0002579  91.1319 269.0173 14.34217858403041
IRIDIUM 107             
1 42960U 17061F   25171.74480004  .00000019  00000+0 -24409-6 0  9994
2 42960  86.3998 176.3203 0002606  82.3387 277.8105 14.34217680403017
IRIDIUM 132             
1 42961U 17061G   25171.75114269  .00000073  00000+0  18997-4 0  9995
2 42961  86.3992 176.2997 0002409  87.1993 272.9479 14.34217989403010
IRIDIUM 136             
1 42962U 17061H   25171.29447661 -.00000006  00000+0 -92914-5 0  9990
2 42962  86.3999 176.4953 0002486  89.9155 270.2326 14.34217539402963
IRIDIUM 139             
1 42963U 17061J   25171.71943058 -.00000022  00000+0 -14874-4 0  9995
2 42963  86.4000 176.3739 0002421  84.6682 275.4790 14.34217302403034
IRIDIUM 125             
1 42964U 17061K   25171.98581905  .00000013  00000+0 -23427-5 0  9998
2 42964  86.3995 176.3169 0003012  90.1861 269.9680 14.34217860403082
IRIDIUM 135             
1 43070U 17083A   25171.75063861  .00000041  00000+0  76289-5 0  9996
2 43070  86.3968 113.1304 0002058  85.1249 275.0181 14.34217774392348
IRIDIUM 138             
1 43071U 17083B   25172.12485207  .00000208  00000+0  67142-4 0  9993
2 43071  86.3958 112.6443 0002592  94.9977 265.1515 14.34218596392383
